{
    "links": {
        "self": "http://www.neowsapp.com/rest/v1/neo/3843825?api_key=iIulBulltgU6a56xZRHN4H3l9WmuAYTsLGpBGhQ2"
    },
    "id": "3843825",
    "neo_reference_id": "3843825",
    "name": "(2019 RO2)",
    "designation": "2019 RO2",
    "nasa_jpl_url": "http://ssd.jpl.nasa.gov/sbdb.cgi?sstr=3843825",
    "absolute_magnitude_h": 25.1,
    "estimated_diameter": {
        "kilometers": {
            "estimated_diameter_min": 0.0253837029,
            "estimated_diameter_max": 0.0567596853
        },
        "meters": {
            "estimated_diameter_min": 25.3837029364,
            "estimated_diameter_max": 56.7596852866
        },
        "miles": {
            "estimated_diameter_min": 0.0157726969,
            "estimated_diameter_max": 0.0352688224
        },
        "feet": {
            "estimated_diameter_min": 83.279867942,
            "estimated_diameter_max": 186.2194458756
        }
    },
    "is_potentially_hazardous_asteroid": false,
    "close_approach_data": [
        {
            "close_approach_date": "2018-01-05",
            "close_approach_date_full": "2018-Jan-05 10:48",
            "epoch_date_close_approach": 1515149280000,
            "relative_velocity": {
                "kilometers_per_second": "2.6101688412",
                "kilometers_per_hour": "9396.6078281786",
                "miles_per_hour": "5838.6866807924"
            },
            "miss_distance": {
                "astronomical": "1.7475448026",
                "lunar": "679.7949282114",
                "kilometers": "261428980.198530462",
                "miles": "162444435.6467938956"
            },
            "orbiting_body": "Juptr"
        },
        {
            "close_approach_date": "2019-10-07",
            "close_approach_date_full": "2019-Oct-07 01:05",
            "epoch_date_close_approach": 1570410300000,
            "relative_velocity": {
                "kilometers_per_second": "7.218073405",
                "kilometers_per_hour": "25985.0642581573",
                "miles_per_hour": "16146.1083997422"
            },
            "miss_distance": {
                "astronomical": "0.0585022368",
                "lunar": "22.7573701152",
                "kilometers": "8751810.015515616",
                "miles": "5438122.5745468608"
            },
            "orbiting_body": "Earth"
        }
    ],
    "orbital_data": {
        "orbit_id": "11",
        "orbit_determination_date": "2019-11-07 01:46:37",
        "first_observation_date": "2019-09-06",
        "last_observation_date": "2019-10-08",
        "data_arc_in_days": 32,
        "observations_used": 40,
        "orbit_uncertainty": "7",
        "minimum_orbit_intersection": ".0473181",
        "jupiter_tisserand_invariant": "3.267",
        "epoch_osculation": "2459000.5",
        "eccentricity": ".5699583196197636",
        "semi_major_axis": "2.424588931786163",
        "inclination": "1.565597178164257",
        "ascending_node_longitude": "21.8692744299105",
        "orbital_period": "1378.97249650526",
        "perihelion_distance": "1.042674298456644",
        "perihelion_argument": "5.242906612364055",
        "aphelion_distance": "3.806503565115683",
        "perihelion_time": "2458774.319596384949",
        "mean_anomaly": "59.04754845203518",
        "mean_motion": ".2610639450114854",
        "equinox": "J2000",
        "orbit_class": {
            "orbit_class_type": "AMO",
            "orbit_class_description": "Near-Earth asteroid orbits similar to that of 1221 Amor",
            "orbit_class_range": "1.017 AU < q (perihelion) < 1.3 AU"
        }
    },
    "is_sentry_object": false
}